{"type": "FeatureCollection", "features": [{"type": "Feature", "properties": {"norad_id": 2807, "name": "OPS 7218 (TRANSIT 16)", "group": "nnss", "lat": 17.073190109411687, "lon": -6.237153342688616, "alt_km": 1063.9516617565623, "timestamp": "2025-12-23T09:49:07.351526+00:00", "meta": {"OBJECT_NAME": "OPS 7218 (TRANSIT 16)", "OBJECT_ID": "1967-048A", "EPOCH": "2025-12-22T11:11:04.665408", "MEAN_MOTION": 13.50724324, "ECCENTRICITY": 0.00221616, "INCLINATION": 89.6731, "RA_OF_ASC_NODE": 353.6935, "ARG_OF_PERICENTER": 88.1678, "MEAN_ANOMALY": 26.1167, "EPHEMERIS_TYPE": 0, "CLASSIFICATION_TYPE": "U", "NORAD_CAT_ID": 2807, "ELEMENT_SET_NO": 999, "REV_AT_EPOCH": 88407, "BSTAR": 0.00015711372, "MEAN_MOTION_DOT": 1.12e-06, "MEAN_MOTION_DDOT": 0}, "tle": {"line1": "1 02807U 67048A   25356.46602622  .00000112  00000+0  15711-3 0  9992", "line2": "2 02807  89.6731 353.6935 0022161  88.1678  26.1167 13.50724324884078"}}, "geometry": {"type": "Point", "coordinates": [-6.237153342688616, 17.073190109411687]}}, {"type": "Feature", "properties": {"norad_id": 2965, "name": "OPS 4947 (TRANSIT 17)", "group": "nnss", "lat": -6.661107959551601, "lon": -156.29056786613916, "alt_km": 1029.8445383623075, "timestamp": "2025-12-23T09:49:07.351549+00:00", "meta": {"OBJECT_NAME": "OPS 4947 (TRANSIT 17)", "OBJECT_ID": "1967-092A", "EPOCH": "2025-12-22T15:44:48.349824", "MEAN_MOTION": 13.53456108, "ECCENTRICITY": 0.00469124, "INCLINATION": 89.2487, "RA_OF_ASC_NODE": 23.679, "ARG_OF_PERICENTER": 205.0225, "MEAN_ANOMALY": 274.9233, "EPHEMERIS_TYPE": 0, "CLASSIFICATION_TYPE": "U", "NORAD_CAT_ID": 2965, "ELEMENT_SET_NO": 999, "REV_AT_EPOCH": 87231, "BSTAR": 0.00018492405, "MEAN_MOTION_DOT": 1.36e-06, "MEAN_MOTION_DDOT": 0}, "tle": {"line1": "1 02965U 67092A   25356.65611516  .00000136  00000+0  18492-3 0  9994", "line2": "2 02965  89.2487  23.6790 0046912 205.0225 274.9233 13.53456108872314"}}, "geometry": {"type": "Point", "coordinates": [-156.29056786613916, -6.661107959551601]}}, {"type": "Feature", "properties": {"norad_id": 3133, "name": "OPS 7034 (TRANSIT 18)", "group": "nnss", "lat": -84.14939388953361, "lon": 93.39187856023752, "alt_km": 1106.206190974638, "timestamp": "2025-12-23T09:49:07.351563+00:00", "meta": {"OBJECT_NAME": "OPS 7034 (TRANSIT 18)", "OBJECT_ID": "1968-012A", "EPOCH": "2025-12-22T20:25:10.580160", "MEAN_MOTION": 13.51567989, "ECCENTRICITY": 0.00748024, "INCLINATION": 90.0284, "RA_OF_ASC_NODE": 273.6676, "ARG_OF_PERICENTER": 140.0465, "MEAN_ANOMALY": 288.5401, "EPHEMERIS_TYPE": 0, "CLASSIFICATION_TYPE": "U", "NORAD_CAT_ID": 3133, "ELEMENT_SET_NO": 999, "REV_AT_EPOCH": 57055, "BSTAR": 0.00019731001, "MEAN_MOTION_DOT": 1.41e-06, "MEAN_MOTION_DDOT": 0}, "tle": {"line1": "1 03133U 68012A   25356.85081690  .00000141  00000+0  19731-3 0  9994", "line2": "2 03133  90.0284 273.6676 0074802 140.0465 288.5401 13.51567989570557"}}, "geometry": {"type": "Point", "coordinates": [93.39187856023752, -84.14939388953361]}}, {"type": "Feature", "properties": {"norad_id": 4507, "name": "NNSS 19 (TRANSIT 19)", "group": "nnss", "lat": -44.16886943363172, "lon": 54.53615023101563, "alt_km": 973.5912632283935, "timestamp": "2025-12-23T09:49:07.351575+00:00", "meta": {"OBJECT_NAME": "NNSS 19 (TRANSIT 19)", "OBJECT_ID": "1970-067A", "EPOCH": "2025-12-22T09:35:43.059552", "MEAN_MOTION": 13.5131705, "ECCENTRICITY": 0.01702199, "INCLINATION": 90.005, "RA_OF_ASC_NODE": 234.5405, "ARG_OF_PERICENTER": 265.1051, "MEAN_ANOMALY": 93.0648, "EPHEMERIS_TYPE": 0, "CLASSIFICATION_TYPE": "U", "NORAD_CAT_ID": 4507, "ELEMENT_SET_NO": 999, "REV_AT_EPOCH": 72352, "BSTAR": 0.00016490371, "MEAN_MOTION_DOT": 1.25e-06, "MEAN_MOTION_DDOT": 0}, "tle": {"line1": "1 04507U 70067A   25356.39980393  .00000125  00000+0  16490-3 0  9991", "line2": "2 04507  90.0050 234.5405 0170219 265.1051  93.0648 13.51317050723520"}}, "geometry": {"type": "Point", "coordinates": [54.53615023101563, -44.16886943363172]}}, {"type": "Feature", "properties": {"norad_id": 6909, "name": "NNSS 20 (TRANSIT 20)", "group": "nnss", "lat": -11.95108260369478, "lon": -105.13617748868889, "alt_km": 937.2767312981914, "timestamp": "2025-12-23T09:49:07.351586+00:00", "meta": {"OBJECT_NAME": "NNSS 20 (TRANSIT 20)", "OBJECT_ID": "1973-081A", "EPOCH": "2025-12-22T02:21:26.013600", "MEAN_MOTION": 13.71439096, "ECCENTRICITY": 0.0156327, "INCLINATION": 89.8562, "RA_OF_ASC_NODE": 254.914, "ARG_OF_PERICENTER": 50.5929, "MEAN_ANOMALY": 310.8956, "EPHEMERIS_TYPE": 0, "CLASSIFICATION_TYPE": "U", "NORAD_CAT_ID": 6909, "ELEMENT_SET_NO": 999, "REV_AT_EPOCH": 80489, "BSTAR": 0.00027894557, "MEAN_MOTION_DOT": 2.85e-06, "MEAN_MOTION_DDOT": 0}, "tle": {"line1": "1 06909U 73081A   25356.09821775  .00000285  00000+0  27895-3 0  9991", "line2": "2 06909  89.8562 254.9140 0156327  50.5929 310.8956 13.71439096804897"}}, "geometry": {"type": "Point", "coordinates": [-105.13617748868889, -11.95108260369478]}}, {"type": "Feature", "properties": {"norad_id": 10457, "name": "TRANSAT", "group": "nnss", "lat": 40.71269459948954, "lon": -102.08418043803317, "alt_km": 1054.495270857733, "timestamp": "2025-12-23T09:49:07.351597+00:00", "meta": {"OBJECT_NAME": "TRANSAT", "OBJECT_ID": "1977-106A", "EPOCH": "2025-12-22T17:40:54.619392", "MEAN_MOTION": 13.48945062, "ECCENTRICITY": 0.00263251, "INCLINATION": 89.6477, "RA_OF_ASC_NODE": 78.243, "ARG_OF_PERICENTER": 161.017, "MEAN_ANOMALY": 315.0669, "EPHEMERIS_TYPE": 0, "CLASSIFICATION_TYPE": "U", "NORAD_CAT_ID": 10457, "ELEMENT_SET_NO": 999, "REV_AT_EPOCH": 36878, "BSTAR": 0.00013351896, "MEAN_MOTION_DOT": 9.4e-07, "MEAN_MOTION_DDOT": 0}, "tle": {"line1": "1 10457U 77106A   25356.73674328  .00000094  00000+0  13352-3 0  9998", "line2": "2 10457  89.6477  78.2430 0026325 161.0170 315.0669 13.48945062368782"}}, "geometry": {"type": "Point", "coordinates": [-102.08418043803317, 40.71269459948954]}}, {"type": "Feature", "properties": {"norad_id": 12458, "name": "NOVA 1", "group": "nnss", "lat": 43.384469273983434, "lon": -88.90506146367244, "alt_km": 1162.4577692469384, "timestamp": "2025-12-23T09:49:07.351608+00:00", "meta": {"OBJECT_NAME": "NOVA 1", "OBJECT_ID": "1981-044A", "EPOCH": "2025-12-22T13:13:40.325952", "MEAN_MOTION": 13.2327954, "ECCENTRICITY": 0.00158143, "INCLINATION": 89.8526, "RA_OF_ASC_NODE": 91.2465, "ARG_OF_PERICENTER": 79.8958, "MEAN_ANOMALY": 291.7383, "EPHEMERIS_TYPE": 0, "CLASSIFICATION_TYPE": "U", "NORAD_CAT_ID": 12458, "ELEMENT_SET_NO": 999, "REV_AT_EPOCH": 15316, "BSTAR": 0.0001659475, "MEAN_MOTION_DOT": 7.9e-07, "MEAN_MOTION_DDOT": 0}, "tle": {"line1": "1 12458U 81044A   25356.55116118  .00000079  00000+0  16595-3 0  9990", "line2": "2 12458  89.8526  91.2465 0015814  79.8958 291.7383 13.23279540153167"}}, "geometry": {"type": "Point", "coordinates": [-88.90506146367244, 43.384469273983434]}}, {"type": "Feature", "properties": {"norad_id": 15362, "name": "NOVA 3", "group": "nnss", "lat": 0.27541886508398067, "lon": 80.65960774512521, "alt_km": 1164.326952274354, "timestamp": "2025-12-23T09:49:07.351618+00:00", "meta": {"OBJECT_NAME": "NOVA 3", "OBJECT_ID": "1984-110A", "EPOCH": "2025-12-22T19:54:34.624224", "MEAN_MOTION": 13.23045769, "ECCENTRICITY": 0.00299327, "INCLINATION": 90.1219, "RA_OF_ASC_NODE": 80.6534, "ARG_OF_PERICENTER": 302.8865, "MEAN_ANOMALY": 178.452, "EPHEMERIS_TYPE": 0, "CLASSIFICATION_TYPE": "U", "NORAD_CAT_ID": 15362, "ELEMENT_SET_NO": 999, "REV_AT_EPOCH": 98832, "BSTAR": 0.00022585614, "MEAN_MOTION_DOT": 1.03e-06, "MEAN_MOTION_DDOT": 0}, "tle": {"line1": "1 15362U 84110A   25356.82956741  .00000103  00000+0  22586-3 0  9993", "line2": "2 15362  90.1219  80.6534 0029932 302.8865 178.4520 13.23045769988321"}}, "geometry": {"type": "Point", "coordinates": [80.65960774512521, 0.27541886508398067]}}, {"type": "Feature", "properties": {"norad_id": 15935, "name": "OSCAR 30", "group": "nnss", "lat": -41.329891868505435, "lon": -80.12390185032962, "alt_km": 1254.065823371683, "timestamp": "2025-12-23T09:49:07.351629+00:00", "meta": {"OBJECT_NAME": "OSCAR 30", "OBJECT_ID": "1985-066A", "EPOCH": "2025-12-22T20:45:25.028064", "MEAN_MOTION": 13.36079881, "ECCENTRICITY": 0.01690263, "INCLINATION": 90.1653, "RA_OF_ASC_NODE": 100.0127, "ARG_OF_PERICENTER": 55.6175, "MEAN_ANOMALY": 68.9897, "EPHEMERIS_TYPE": 0, "CLASSIFICATION_TYPE": "U", "NORAD_CAT_ID": 15935, "ELEMENT_SET_NO": 999, "REV_AT_EPOCH": 96588, "BSTAR": 0.00016448465, "MEAN_MOTION_DOT": 1.01e-06, "MEAN_MOTION_DDOT": 0}, "tle": {"line1": "1 15935U 85066A   25356.86487301  .00000101  00000+0  16448-3 0  9993", "line2": "2 15935  90.1653 100.0127 0169026  55.6175  68.9897 13.36079881965882"}}, "geometry": {"type": "Point", "coordinates": [-80.12390185032962, -41.329891868505435]}}, {"type": "Feature", "properties": {"norad_id": 15936, "name": "OSCAR 24", "group": "nnss", "lat": -70.84318722638169, "lon": 93.01001054656271, "alt_km": 1214.9315396556067, "timestamp": "2025-12-23T09:49:07.351639+00:00", "meta": {"OBJECT_NAME": "OSCAR 24", "OBJECT_ID": "1985-066B", "EPOCH": "2025-12-22T17:00:50.070240", "MEAN_MOTION": 13.35937122, "ECCENTRICITY": 0.01701816, "INCLINATION": 90.1791, "RA_OF_ASC_NODE": 92.4818, "ARG_OF_PERICENTER": 62.4983, "MEAN_ANOMALY": 102.6279, "EPHEMERIS_TYPE": 0, "CLASSIFICATION_TYPE": "U", "NORAD_CAT_ID": 15936, "ELEMENT_SET_NO": 999, "REV_AT_EPOCH": 96776, "BSTAR": 0.00014928667, "MEAN_MOTION_DOT": 9.3e-07, "MEAN_MOTION_DDOT": 0}, "tle": {"line1": "1 15936U 85066B   25356.70891285  .00000093  00000+0  14929-3 0  9999", "line2": "2 15936  90.1791  92.4818 0170181  62.4983 102.6279 13.35937122967763"}}, "geometry": {"type": "Point", "coordinates": [93.01001054656271, -70.84318722638169]}}]}